{
  "type": "FeatureCollection",
  "features": [
    {
      "type": "Feature",
      "geometry": {
        "type": "MultiPolygon",
        "coordinates": [
          [
            [
              [-81.36859915854242, 28.573589746060257],
              [-81.36849973889869, 28.573586316498066],
              [-81.36840038307928, 28.573601205909807],
              [-81.36829277802639, 28.573619818116633],
              [-81.36763987653812, 28.57377509659765],
              [-81.36757246235173, 28.5737859285869],
              [-81.36732454978898, 28.57382712017538],
              [-81.36716910440114, 28.573836204186048],
              [-81.36697792115471, 28.5738244477737],
              [-81.3667712993857, 28.573810116046193],
              [-81.36651281261426, 28.573792765018535],
              [-81.36602819033479, 28.57375021413768],
              [-81.3659121365685, 28.57373960705538],
              [-81.3658083307784, 28.573711369503247],
              [-81.3656551587835, 28.57367080995936],
              [-81.36544374558075, 28.573587270931306],
              [-81.36446836291607, 28.57311483861637],
              [-81.3644335632527, 28.570454388396964],
              [-81.36443294975855, 28.570349614353717],
              [-81.36443020246459, 28.56933218775415],
              [-81.36445227988035, 28.565609115855025],
              [-81.36444741977549, 28.56481045051893],
              [-81.36444296309404, 28.56403064556026],
              [-81.3650624613762, 28.564032680334947],
              [-81.36563576386777, 28.56403646184364],
              [-81.36617767036208, 28.564030217655176],
              [-81.36726499726645, 28.564082871941928],
              [-81.36837174290355, 28.564070757320632],
              [-81.36928995936071, 28.56407791897121],
              [-81.37002688464582, 28.56407636312685],
              [-81.37075625818254, 28.564060926117403],
              [-81.37140947966893, 28.564063200732335],
              [-81.37174373117362, 28.56405524654672],
              [-81.37215366575259, 28.56406432138525],
              [-81.37233233192492, 28.56406969747796],
              [-81.37244576045748, 28.56415150974766],
              [-81.37248946752415, 28.56485603176385],
              [-81.3725779817572, 28.56722339437676],
              [-81.37254325244447, 28.567512367273125],
              [-81.37246148575964, 28.567827550373714],
              [-81.37178010819704, 28.571358760911767],
              [-81.3714064185037, 28.573179595024833],
              [-81.37127174204268, 28.57410877545785],
              [-81.37041015224753, 28.57402097407568],
              [-81.3697988437151, 28.573942142189065],
              [-81.36963667546101, 28.573909373559758],
              [-81.36924211672094, 28.573799174413335],
              [-81.36898563429811, 28.573703669546603],
              [-81.36877996463762, 28.573623819693196],
              [-81.36859915854242, 28.573589746060257]
            ]
          ]
        ]
      },
      "properties": {
        "neigh_name": "Lake Formosa",
        "neigh_id": "43",
        "cluster_id": "27"
      }
    }
  ]
}
